ONEWEB-0564             
1 55801U 23029F   25347.60626242  .00000103  00000+0  22054-3 0  9993
2 55801  87.9193 311.4804 0001809  94.5146 265.6194 13.20770050136655
ONEWEB-0638             
1 55802U 23029G   25347.66567670 -.00000174  00000+0 -50305-3 0  9999
2 55802  87.8983 326.7299 0002142  95.7707 264.3667 13.14503519135024
ONEWEB-0639             
1 55803U 23029H   25347.50822513  .00000124  00000+0  27677-3 0  9992
2 55803  87.9192 341.9263 0002448  63.8775 296.2609 13.19724793134414
ONEWEB-0640             
1 55804U 23029J   25347.44683177 -.00000017  00000+0 -80924-4 0  9995
2 55804  87.8987 326.7609 0002560  88.4491 271.6932 13.14503849135019
ONEWEB-0641             
1 55805U 23029K   25347.50348408  .00000090  00000+0  19161-3 0  9991
2 55805  87.9201 341.9084 0001828  82.1847 277.9493 13.19725134134421
ONEWEB-0642             
1 55806U 23029L   25347.42293088  .00000118  00000+0  26149-3 0  9991
2 55806  87.9193 341.9475 0002100  63.1197 297.0150 13.19725426134402
ONEWEB-0643             
1 55807U 23029M   25347.64505221  .00000157  00000+0  38888-3 0  9997
2 55807  87.8994 326.7076 0001779  61.5792 298.5517 13.14504265135015
ONEWEB-0644             
1 55808U 23029N   25347.49401105  .00000126  00000+0  28340-3 0  9995
2 55808  87.9192 341.9427 0001827  75.2543 284.8792 13.19726727134416
